{"type": "FeatureCollection", "features": [ {"type": "Feature", "properties": {"norad_id": 38220, "name": "COSMOS 2251 DEB", "group": "cosmos-2251-debris", "lat": 44.06759100027481, "lon": -153.33184298384734, "alt_km": 584.6928955522226, "timestamp": "2025-12-25T09:48:52.687160+00:00", "meta": {"OBJECT_NAME": "COSMOS 2251 DEB", "OBJECT_ID": "1993-036BTL", "EPOCH": "2025-12-25T02:47:20.409216", "MEAN_MOTION": 14.93616578, "ECCENTRICITY": 0.0006046, "INCLINATION": 74.0136, "RA_OF_ASC_NODE": 43.3689, "ARG_OF_PERICENTER": 13.8896, "MEAN_ANOMALY": 346.2452, "EPHEMERIS_TYPE": 0, "CLASSIFICATION_TYPE": "U", "NORAD_CAT_ID": 38220, "ELEMENT_SET_NO": 999, "REV_AT_EPOCH": 71555, "BSTAR": 0.0029074, "MEAN_MOTION_DOT": 0.00030813, "MEAN_MOTION_DDOT": 0}, "tle": {"line1": "1 38220U 93036BTL 25359.11620844  .00030813  00000+0  29074-2 0  9994", "line2": "2 38220  74.0136  43.3689 0006046  13.8896 346.2452 14.93616578715551"}}, "geometry": {"type": "Point", "coordinates": [-153.33184298384734, 44.06759100027481]}}, {"type": "Feature", "properties": {"norad_id": 38479, "name": "COSMOS 2251 DEB", "group": "cosmos-2251-debris", "lat": -70.84315767949523, "lon": 105.23563408143413, "alt_km": 712.241828098191, "timestamp": "2025-12-25T09:48:52.687170+00:00", "meta": {"OBJECT_NAME": "COSMOS 2251 DEB", "OBJECT_ID": "1993-036BTP", "EPOCH": "2025-12-23T05:36:33.154848", "MEAN_MOTION": 14.38410381, "ECCENTRICITY": 0.00839559, "INCLINATION": 74.0057, "RA_OF_ASC_NODE": 164.9051, "ARG_OF_PERICENTER": 271.8436, "MEAN_ANOMALY": 269.121, "EPHEMERIS_TYPE": 0, "CLASSIFICATION_TYPE": "U", "NORAD_CAT_ID": 38479, "ELEMENT_SET_NO": 999, "REV_AT_EPOCH": 64838, "BSTAR": 0.0020977765, "MEAN_MOTION_DOT": 6.644e-05, "MEAN_MOTION_DDOT": 0}, "tle": {"line1": "1 38479U 93036BTP 25357.23371707  .00006644  00000+0  20978-2 0  9991", "line2": "2 38479  74.0057 164.9051 0083955 271.8436 269.1210 14.38410381648386"}}, "geometry": {"type": "Point", "coordinates": [105.23563408143413, -70.84315767949523]}}, {"type": "Feature", "properties": {"norad_id": 38481, "name": "COSMOS 2251 DEB", "group": "cosmos-2251-debris", "lat": 4.462976524167839, "lon": -13.05273806091629, "alt_km": 883.2323554822906, "timestamp": "2025-12-25T09:48:52.687180+00:00", "meta": {"OBJECT_NAME": "COSMOS 2251 DEB", "OBJECT_ID": "1993-036BTR", "EPOCH": "2025-12-24T16:34:49.611936", "MEAN_MOTION": 13.9488699, "ECCENTRICITY": 0.02349003, "INCLINATION": 73.9328, "RA_OF_ASC_NODE": 346.8989, "ARG_OF_PERICENTER": 284.9937, "MEAN_ANOMALY": 72.5302, "EPHEMERIS_TYPE": 0, "CLASSIFICATION_TYPE": "U", "NORAD_CAT_ID": 38481, "ELEMENT_SET_NO": 999, "REV_AT_EPOCH": 59227, "BSTAR": 0.0016488432, "MEAN_MOTION_DOT": 2.762e-05, "MEAN_MOTION_DDOT": 0}, "tle": {"line1": "1 38481U 93036BTR 25358.69085199  .00002762  00000+0  16488-2 0  9990", "line2": "2 38481  73.9328 346.8989 0234900 284.9937  72.5302 13.94886990592276"}}, "geometry": {"type": "Point", "coordinates": [-13.05273806091629, 4.462976524167839]}}, {"type": "Feature", "properties": {"norad_id": 38483, "name": "COSMOS 2251 DEB", "group": "cosmos-2251-debris", "lat": -31.99423001956911, "lon": 179.22508115859884, "alt_km": 843.3229615827104, "timestamp": "2025-12-25T09:48:52.687189+00:00", "meta": {"OBJECT_NAME": "COSMOS 2251 DEB", "OBJECT_ID": "1993-036BTT", "EPOCH": "2025-12-12T08:16:48.530496", "MEAN_MOTION": 14.28787654, "ECCENTRICITY": 0.01107994, "INCLINATION": 74.262, "RA_OF_ASC_NODE": 12.4521, "ARG_OF_PERICENTER": 118.0167, "MEAN_ANOMALY": 243.2246, "EPHEMERIS_TYPE": 0, "CLASSIFICATION_TYPE": "U", "NORAD_CAT_ID": 38483, "ELEMENT_SET_NO": 999, "REV_AT_EPOCH": 63472, "BSTAR": 0.0012977102, "MEAN_MOTION_DOT": 3.471e-05, "MEAN_MOTION_DDOT": 0}, "tle": {"line1": "1 38483U 93036BTT 25346.34500614  .00003471  00000+0  12977-2 0  9992", "line2": "2 38483  74.2620  12.4521 0110799 118.0167 243.2246 14.28787654634722"}}, "geometry": {"type": "Point", "coordinates": [179.22508115859884, -31.99423001956911]}}, {"type": "Feature", "properties": {"norad_id": 38486, "name": "COSMOS 2251 DEB", "group": "cosmos-2251-debris", "lat": 60.55780544136963, "lon": -149.289598835183, "alt_km": 648.3120496873253, "timestamp": "2025-12-25T09:48:52.687199+00:00", "meta": {"OBJECT_NAME": "COSMOS 2251 DEB", "OBJECT_ID": "1993-036BTW", "EPOCH": "2025-12-19T21:49:44.280192", "MEAN_MOTION": 14.73429029, "ECCENTRICITY": 0.0030516, "INCLINATION": 73.9403, "RA_OF_ASC_NODE": 190.8021, "ARG_OF_PERICENTER": 334.2314, "MEAN_ANOMALY": 90.8371, "EPHEMERIS_TYPE": 0, "CLASSIFICATION_TYPE": "U", "NORAD_CAT_ID": 38486, "ELEMENT_SET_NO": 999, "REV_AT_EPOCH": 75540, "BSTAR": 0.0013432, "MEAN_MOTION_DOT": 8.756e-05, "MEAN_MOTION_DDOT": 0}, "tle": {"line1": "1 38486U 93036BTW 25353.90954028  .00008756  00000+0  13432-2 0  9995", "line2": "2 38486  73.9403 190.8021 0030516 334.2314  90.8371 14.73429029755403"}}, "geometry": {"type": "Point", "coordinates": [-149.289598835183, 60.55780544136963]}}, {"type": "Feature", "properties": {"norad_id": 38487, "name": "COSMOS 2251 DEB", "group": "cosmos-2251-debris", "lat": 59.24251916980412, "lon": 36.13917038332915, "alt_km": 510.7632705015376, "timestamp": "2025-12-25T09:48:52.687209+00:00", "meta": {"OBJECT_NAME": "COSMOS 2251 DEB", "OBJECT_ID": "1993-036BTX", "EPOCH": "2025-12-21T18:32:44.643552", "MEAN_MOTION": 15.1793295, "ECCENTRICITY": 0.00206459, "INCLINATION": 73.9735, "RA_OF_ASC_NODE": 14.8819, "ARG_OF_PERICENTER": 185.3276, "MEAN_ANOMALY": 174.7704, "EPHEMERIS_TYPE": 0, "CLASSIFICATION_TYPE": "U", "NORAD_CAT_ID": 38487, "ELEMENT_SET_NO": 999, "REV_AT_EPOCH": 66937, "BSTAR": 0.0019265154, "MEAN_MOTION_DOT": 0.00039496, "MEAN_MOTION_DDOT": 0}, "tle": {"line1": "1 38487U 93036BTX 25355.77273893  .00039496  00000+0  19265-2 0  9992", "line2": "2 38487  73.9735  14.8819 0020645 185.3276 174.7704 15.17932950669379"}}, "geometry": {"type": "Point", "coordinates": [36.13917038332915, 59.24251916980412]}}, {"type": "Feature", "properties": {"norad_id": 39109, "name": "COSMOS 2251 DEB", "group": "cosmos-2251-debris", "lat": 2.6457497182685956, "lon": -158.74562065239346, "alt_km": 640.9251065069593, "timestamp": "2025-12-25T09:48:52.687219+00:00", "meta": {"OBJECT_NAME": "COSMOS 2251 DEB", "OBJECT_ID": "1993-036BTY", "EPOCH": "2025-12-20T22:20:27.128256", "MEAN_MOTION": 14.70767113, "ECCENTRICITY": 0.00595267, "INCLINATION": 74.0415, "RA_OF_ASC_NODE": 209.1834, "ARG_OF_PERICENTER": 310.8219, "MEAN_ANOMALY": 110.7879, "EPHEMERIS_TYPE": 0, "CLASSIFICATION_TYPE": "U", "NORAD_CAT_ID": 39109, "ELEMENT_SET_NO": 999, "REV_AT_EPOCH": 65294, "BSTAR": 0.00038726181, "MEAN_MOTION_DOT": 2.395e-05, "MEAN_MOTION_DDOT": 0}, "tle": {"line1": "1 39109U 93036BTY 25354.93086954  .00002395  00000+0  38726-3 0  9993", "line2": "2 39109  74.0415 209.1834 0059526 310.8219 110.7879 14.70767113652949"}}, "geometry": {"type": "Point", "coordinates": [-158.74562065239346, 2.6457497182685956]}}, {"type": "Feature", "properties": {"norad_id": 39110, "name": "COSMOS 2251 DEB", "group": "cosmos-2251-debris", "lat": -67.9782404459371, "lon": -97.91810777900241, "alt_km": 593.5022501557141, "timestamp": "2025-12-25T09:48:52.687229+00:00", "meta": {"OBJECT_NAME": "COSMOS 2251 DEB", "OBJECT_ID": "1993-036BTZ", "EPOCH": "2025-12-17T22:04:59.920608", "MEAN_MOTION": 14.72312711, "ECCENTRICITY": 0.00972569, "INCLINATION": 73.9594, "RA_OF_ASC_NODE": 51.3772, "ARG_OF_PERICENTER": 282.7235, "MEAN_ANOMALY": 255.0933, "EPHEMERIS_TYPE": 0, "CLASSIFICATION_TYPE": "U", "NORAD_CAT_ID": 39110, "ELEMENT_SET_NO": 999, "REV_AT_EPOCH": 62560, "BSTAR": 0.00028872963, "MEAN_MOTION_DOT": 1.929e-05, "MEAN_MOTION_DDOT": 0}, "tle": {"line1": "1 39110U 93036BTZ 25351.92013797  .00001929  00000+0  28873-3 0  9990", "line2": "2 39110  73.9594  51.3772 0097256 282.7235 255.0933 14.72312711625601"}}, "geometry": {"type": "Point", "coordinates": [-97.91810777900241, -67.9782404459371]}}, {"type": "Feature", "properties": {"norad_id": 39111, "name": "COSMOS 2251 DEB", "group": "cosmos-2251-debris", "lat": -10.707668107757708, "lon": 11.637384827885281, "alt_km": 512.1552038997015, "timestamp": "2025-12-25T09:48:52.687239+00:00", "meta": {"OBJECT_NAME": "COSMOS 2251 DEB", "OBJECT_ID": "1993-036BUA", "EPOCH": "2025-12-01T22:58:55.551360", "MEAN_MOTION": 15.11912111, "ECCENTRICITY": 0.00109111, "INCLINATION": 74.0059, "RA_OF_ASC_NODE": 63.5328, "ARG_OF_PERICENTER": 39.1207, "MEAN_ANOMALY": 321.0773, "EPHEMERIS_TYPE": 0, "CLASSIFICATION_TYPE": "U", "NORAD_CAT_ID": 39111, "ELEMENT_SET_NO": 999, "REV_AT_EPOCH": 8982, "BSTAR": 0.0056424119, "MEAN_MOTION_DOT": 0.00098096, "MEAN_MOTION_DDOT": 0}, "tle": {"line1": "1 39111U 93036BUA 25335.95758740  .00098096  00000+0  56424-2 0  9993", "line2": "2 39111  74.0059  63.5328 0010911  39.1207 321.0773 15.11912111 89826"}}, "geometry": {"type": "Point", "coordinates": [11.637384827885281, -10.707668107757708]}}, {"type": "Feature", "properties": {"norad_id": 39546, "name": "COSMOS 2251 DEB", "group": "cosmos-2251-debris", "lat": 50.4311976081868, "lon": -89.02446792350693, "alt_km": 610.0136536367254, "timestamp": "2025-12-25T09:48:52.687249+00:00", "meta": {"OBJECT_NAME": "COSMOS 2251 DEB", "OBJECT_ID": "1993-036BUC", "EPOCH": "2025-12-24T13:56:22.632000", "MEAN_MOTION": 14.92375165, "ECCENTRICITY": 0.00441684, "INCLINATION": 73.9985, "RA_OF_ASC_NODE": 112.9623, "ARG_OF_PERICENTER": 271.498, "MEAN_ANOMALY": 88.1143, "EPHEMERIS_TYPE": 0, "CLASSIFICATION_TYPE": "U", "NORAD_CAT_ID": 39546, "ELEMENT_SET_NO": 999, "REV_AT_EPOCH": 64613, "BSTAR": 0.0015871361, "MEAN_MOTION_DOT": 0.00016553, "MEAN_MOTION_DDOT": 0}, "tle": {"line1": "1 39546U 93036BUC 25358.58081750  .00016553  00000+0  15871-2 0  9998", "line2": "2 39546  73.9985 112.9623 0044168 271.4980  88.1143 14.92375165646136"}}, "geometry": {"type": "Point", "coordinates": [-89.02446792350693, 50.4311976081868]}}]}